HST                     
1 20580U 90037B   21309.46791446  .00001542  00000-0  82002-4 0  9998
2 20580  28.4694 211.9266 0002790 140.3659  22.4776 15.09823993532325
POLAR                   
1 23802U 96013A   21308.91175727  .00000190  00000-0  00000-0 0  9997
2 23802  78.7261 243.9051 5920755 266.4873  28.2209  1.29847002122978
SWAS                    
1 25560U 98071A   21309.41574470  .00000987  00000-0  10037-3 0  9998
2 25560  69.8987 190.3586 0010875 290.7834  69.2157 14.94203093244558
CXO                     
1 25867U 99040B   21310.91345466  .00000824  00000-0  00000+0 0  9998
2 25867  51.5311 248.8572 8531087 227.8486   0.2643  0.37804239 22118
XMM-NEWTON              
1 25989U 99066A   21310.12209012 -.00000094  00000-0  00000+0 0  9990
2 25989  70.5744 309.0759 6364688  89.1217 359.8624  0.50129626 28923
TERRA                   
1 25994U 99068A   21309.48727944  .00000201  00000-0  54486-4 0  9995
2 25994  98.1638  21.2364 0001124  94.6494  10.0079 14.57130241163889
CLUSTER II-FM7 (SAMBA)  
1 26410U 00041A   21309.96973383  .00000483  00000-0  00000-0 0  9996
2 26410 133.2498 345.6924 5167876 194.9777   0.9483  0.44241905 12828
CLUSTER II-FM6 (SALSA)  
1 26411U 00041B   21309.96336652  .00000468  00000-0  00000-0 0  9992
2 26411 134.4749 348.0229 6732568 199.5558   0.9987  0.44226532 12874
CLUSTER II-FM5 (RUMBA)  
1 26463U 00045A   21309.96650705  .00000539  00000-0  00000-0 0  9990
2 26463 138.0975 348.1593 6271827 200.0586   0.9590  0.44225867 12760
CLUSTER II-FM8 (TANGO)  
1 26464U 00045B   21309.96862028  .00000483  00000-0  00000-0 0  9992
2 26464 133.2437 345.6882 5169774 194.9587   0.9727  0.44218119 12834
ODIN                    
1 26702U 01007A   21309.48985200  .00001469  00000-0  97438-4 0  9991
2 26702  97.5326 323.4305 0010019 346.4822  13.6137 15.08771232132497
TIMED                   
1 26998U 01055B   21309.43236776  .00000487  00000-0  56553-4 0  9995
2 26998  74.0740   5.8180 0002569 288.9492  71.1411 14.88379192 79670
RHESSI                  
1 27370U 02004A   21309.47439869  .00013153  00000-0  36295-3 0  9991
2 27370  38.0331 310.6198 0011337 168.0214 192.0830 15.36497490 92084
INTEGRAL                
1 27540U 02048A   21308.20181227  .00000420  00000-0  00000-0 0  9995
2 27540  68.5150  74.3941 8966821 299.9494 262.8468  0.37583648 20304
CORIOLIS                
1 27640U 03001A   21309.54564271  .00000032  00000-0  35972-4 0  9997
2 27640  98.7220 317.1140 0014615  25.5738 132.1670 14.19088104975190
SORCE                   
1 27651U 03004A   21309.47515698  .00000782  00000-0  94638-4 0  9999
2 27651  39.9968  27.5323 0023562 336.4834  23.4876 14.89426379 19663
MOST                    
1 27843U 03031D   21309.45942539  .00000021  00000-0  29846-4 0  9993
2 27843  98.7100 315.3616 0011075  75.9402 284.3005 14.20649615951440
SCISAT 1                
1 27858U 03036A   21309.31660386  .00000281  00000-0  44425-4 0  9994
2 27858  73.9322 266.5503 0008132 346.1011  13.9938 14.77389251982329
SWIFT                   
1 28485U 04047A   21309.40972203  .00002390  00000-0  13171-3 0  9994
2 28485  20.5565  81.4858 0010955 341.2358  18.7671 15.05257392929731
FORMOSAT-3 FM6          
1 29047U 06011A   21309.52820773  .00000193  00000-0  91616-4 0  9999
2 29047  71.9768 156.9718 0052155 269.0887  90.4273 14.28857025813578
FORMOSAT-3 FM1          
1 29048U 06011B   21309.34946545  .00000224  00000-0  10427-3 0  9991
2 29048  71.9672  67.6540 0045125 230.2017 129.5143 14.28817933816025
FORMOSAT-3 FM5          
1 29049U 06011C   21309.25290264  .00000209  00000-0  98263-4 0  9990
2 29049  72.0205 242.3765 0036998 251.7344 107.9765 14.28899905811800
FORMOSAT-3 FM3          
1 29050U 06011D   21309.34022962  .00000484  00000-0  11139-3 0  9991
2 29050  72.0160 336.5100 0047806 126.8435 233.7117 14.59155049830093
FORMOSAT-3 FM4          
1 29051U 06011E   21309.52116330  .00000203  00000-0  94160-4 0  9990
2 29051  72.0030 142.9077 0066862 130.6373 230.0605 14.28931857814425
FORMOSAT-3 FM2          
1 29052U 06011F   21309.48315373  .00000196  00000-0  92804-4 0  9998
2 29052  72.0349 218.6982 0041226 210.7180 149.1544 14.29041273811916
CLOUDSAT                
1 29107U 06016A   21309.45701812  .00000268  00000-0  62086-4 0  9997
2 29107  98.2967 262.9844 0001883 296.1949  63.9058 14.62741789826283
CALIPSO                 
1 29108U 06016B   21309.51260394  .00000476  00000-0  10315-3 0  9998
2 29108  98.2938 262.7167 0001323  79.0014 281.1336 14.62626730826302
HINODE (SOLAR-B)        
1 29479U 06041A   21309.50805597  .00000246  00000-0  55396-4 0  9990
2 29479  98.1324 322.4359 0018568 207.3100 152.7128 14.64608101807988
SJ-6C                   
1 29505U 06046A   21309.50190425  .00001021  00000-0  97897-4 0  9996
2 29505  97.7937 326.9423 0005506 136.2445 223.9212 14.95327438819224
SJ-6D                   
1 29506U 06046B   21309.48185057  .00001114  00000-0  11086-3 0  9997
2 29506  97.8142 327.1435 0001086 189.9919 170.1288 14.93668265818702
AGILE                   
1 31135U 07013A   21308.41786637  .00013094  00000-0  34384-3 0  9992
2 31135   2.4669 200.8530 0010985 160.1430 199.9052 15.34394063809682
AIM                     
1 31304U 07015A   21309.31582756  .00005189  00000-0  28169-3 0  9998
2 31304  97.8574 215.6881 0006653  71.3362 288.8591 15.14988169797237
FGRST (GLAST)           
1 33053U 08029A   21309.22292086  .00001346  00000-0  60040-4 0  9997
2 33053  25.5824 255.4203 0012568 102.5226 257.6716 15.11654137739729
WISE                    
1 36119U 09071A   21309.20329158  .00004473  00000-0  14989-3 0  9994
2 36119  97.2693 343.1367 0003584  51.7826 308.3738 15.31424691661162
SDO                     
1 36395U 10005A   21309.50576890 -.00000035  00000-0  00000-0 0  9996
2 36395  31.2253 112.8749 0000746 221.4177 151.1254  1.00272177 43178
CRYOSAT 2               
1 36508U 10013A   21309.54005214  .00000090  00000-0  21660-4 0  9991
2 36508  92.0261 229.8619 0003624 303.1356  56.9503 14.51904575613646
X-SAT                   
1 37389U 11015C   21309.49742944  .00000083  00000-0  53758-4 0  9999
2 37389  98.3664 348.7936 0013012 246.1141 113.8676 14.24393560548325
GCOM-W1 (SHIZUKU)       
1 38337U 12025A   21309.37278296  .00000248  00000-0  65114-4 0  9998
2 38337  98.2214 248.1000 0001301 117.7512 353.4094 14.57098292503683
NUSTAR                  
1 38358U 12031A   21308.39316387  .00002491  00000-0  18555-3 0  9991
2 38358   6.0257 200.2454 0011917 327.9856  31.9549 14.88684017511358
NEOSSAT                 
1 39089U 13009D   21309.29873384  .00000079  00000-0  43026-4 0  9996
2 39089  98.4320 146.0661 0010495 220.2217 139.8193 14.34594116455079
IRIS                    
1 39197U 13033A   21309.38623462  .00000487  00000-0  72728-4 0  9997
2 39197  97.9668 132.3018 0028378  36.0668 324.2451 14.78930361450856
HISAKI (SPRINT-A)       
1 39253U 13049A   21309.22064576  .00000127  00000-0  87248-4 0  9999
2 39253  29.7180 144.2240 0136768  39.9675 321.0874 13.55255337402660
CASSIOPE                
1 39265U 13055A   21309.56362963  .00007104  00000-0  19800-3 0  9997
2 39265  80.9640 143.7876 0641758 259.1923  93.6440 14.33764639420202
STSAT-3                 
1 39422U 13066G   21309.48710410  .00000449  00000-0  51797-4 0  9996
2 39422  97.4756 321.7746 0021705 311.5058  48.4284 14.90049056432487
SWARM B                 
1 39451U 13067A   21309.48539404  .00001379  00000-0  58510-4 0  9994
2 39451  87.7484 128.4702 0003957  88.2058 271.9640 15.22216168426871
SWARM A                 
1 39452U 13067B   21309.47567495  .00008421  00000-0  17003-3 0  9991
2 39452  87.3548 306.3201 0002886 103.6870 256.4710 15.46320304447327
SWARM C                 
1 39453U 13067C   21309.47544086  .00005462  00000-0  10995-3 0  9998
2 39453  87.3402 306.2472 0002869 103.7459 256.4119 15.46327882447287
BRITE-CA1 (TORONTO)     
1 40020U 14033L   21309.40751100  .00000373  00000-0  71925-4 0  9991
2 40020  97.7542 115.1746 0085861 257.9842 101.1730 14.66792878394818
OCO 2                   
1 40059U 14035A   21309.48527329  .00000199  00000-0  54234-4 0  9997
2 40059  98.2223 248.9604 0001454  81.9270 278.2093 14.57120819390719
BRITE-PL2 (HEWELIUSZ)   
1 40119U 14049B   21309.48667426  .00000597  00000-0  76696-4 0  9990
2 40119  97.8883  42.4970 0016007 253.5072 106.4384 14.84740223390771
RESURS P2               
1 40360U 14087A   21309.50546549  .00004962  00000-0  14956-3 0  9995
2 40360  97.2240  34.0752 0010146 164.0087 312.6620 15.34722112383897
MMS 1                   
1 40482U 15011C   21307.00069444  .00000241  00000-0  00000+0 0  9992
2 40482  33.5718 113.6817 8467243  39.4096 338.9768  0.28420690 12658
MMS 2                   
1 40483U 15011A   21307.04166667  .00000239  00000-0  00000+0 0  9999
2 40483  33.5715 113.6889 8466595  39.4146 343.1421  0.28422916 12635
MMS 3                   
1 40484U 15011C   21307.04166667  .00000240  00000-0  00000+0 0  9992
2 40484  33.5773 113.6865 8466636  39.4105 343.1453  0.28427431 12626
MMS 4                   
1 40485U 15011D   21307.04166667  .00000240  00000-0  00000+0 0  9993
2 40485  33.5721 113.6844 8465821  39.4098 343.1642  0.28422926 12627
ASTROSAT                
1 40930U 15052A   21309.14622886  .00001073  00000-0  61452-4 0  9994
2 40930   5.9978 337.5768 0008968 224.4021 135.5387 14.76424969329997
DAMPE                   
1 41173U 15078A   21309.55492455  .00000196  00000-0  10978-4 0  9996
2 41173  97.3601 299.0681 0011872 268.5267 239.6237 15.24093083327474
PISAT                   
1 41784U 16059B   21309.33798339  .00000380  00000-0  81297-4 0  9997
2 41784  97.9497 356.0456 0032534 155.6370 204.6379 14.63684740272908
HXMT (HUIYAN)           
1 42758U 17034A   21309.60428684  .00001695  00000-0  11759-3 0  9991
2 42758  43.0154 138.2448 0009167 315.3803 108.8179 15.09423849242345
FLYING LAPTOP           
1 42831U 17042G   21309.52956734  .00001148  00000-0  12004-3 0  9992
2 42831  97.4482 171.6731 0015052  41.4303 318.8053 14.91394338234718
PICSAT                  
1 43132U 18004X   21309.47958436  .00009733  00000-0  37190-3 0  9992
2 43132  97.3981  22.7316 0010297  75.0257 285.2121 15.26773574212191
ZHANGZHENG-1 (CSES)     
1 43194U 18015C   21309.64915234  .00007555  00000-0  34258-3 0  9992
2 43194  97.4975  76.1529 0012019 136.4118 348.8890 15.21058773208606
ICON                    
1 44628U 19068A   21309.34940552  .00001456  00000-0  12014-3 0  9992
2 44628  26.9905 332.2612 0019195  69.0426 291.2184 14.92107848113059
SALSAT                  
1 46495U 20068K   21309.61689766  .00001615  00000-0  12229-3 0  9990
2 46495  97.7027 246.3544 0015652 321.1696  38.8407 15.03651808 60549
